STARLINK-36533          
1 67643U 26020AC  26049.84188632  .00251422  00000+0  14967-2 0  9991
2 67643  42.9968 256.5200 0002163 285.7581  74.3050 15.76440258  3110
STARLINK-36623          
1 67644U 26020AD  26049.89866504  .00295164  00000+0  17318-2 0  9992
2 67644  42.9962 256.0801 0006073 238.1136 121.9143 15.76629231  3122
STARLINK-36619          
1 67645U 26020AE  26049.83312748  .00233826  00000+0  13940-2 0  9997
2 67645  42.9968 256.4477 0001692 278.7606  81.3072 15.76457239  3112
ALSAT-3B                
1 67646U 26021A   26049.86444876  .00006093  00000+0  25667-3 0  9994
2 67646  97.4704 124.2824 0012361 195.3635 164.7229 15.23651805  2852
CZ-2C R/B               
1 67647U 26021B   26049.86767536  .00011242  00000+0  33935-3 0  9995
2 67647  97.6545 124.9578 0153348  76.6873 285.1412 15.23566299  2839
STARLINK-36719          
1 67648U 26022A   26049.83335647  .00093951  00000+0  62545-3 0  9994
2 67648  97.2849  82.8683 0001430 109.9371 107.6172 15.75130664  3864
STARLINK-36342          
1 67649U 26022B   26049.83335647 -.00110389  00000+0 -74748-3 0  9990
2 67649  97.2833  82.8707 0001342  90.3943 131.1948 15.75231163  3864
STARLINK-36703          
1 67650U 26022C   26049.83335647 -.00131824  00000+0 -89440-3 0  9994
2 67650  97.2831  82.8726 0001532 101.9638 125.6180 15.75246399  3869
STARLINK-36696          
1 67651U 26022D   26049.83335647 -.00101225  00000+0 -68460-3 0  9996
2 67651  97.2833  82.8773 0001284 104.5865 133.0063 15.75232068  3860
STARLINK-36699          
1 67652U 26022E   26049.83335647 -.00134705  00000+0 -91522-3 0  9991
2 67652  97.2829  82.8781 0001223  88.2995 153.2932 15.75223517  3868
STARLINK-36694          
1 67653U 26022F   26049.83335647 -.00153356  00000+0 -10430-2 0  9993
2 67653  97.2834  82.8846 0001317 112.7015 140.8897 15.75253233  3867
STARLINK-36620          
1 67654U 26022G   26049.83335647 -.00097763  00000+0 -66116-3 0  9996
2 67654  97.2835  82.8843 0001439 103.7061 151.8913 15.75222050  3866
