CCSDS_OMM_VERS = 2.0
CREATION_DATE  = 
ORIGINATOR     = 

OBJECT_NAME    = STARLINK-36533
OBJECT_ID      = 2026-020AC
CENTER_NAME    = EARTH
REF_FRAME      = TEME
TIME_SYSTEM    = UTC
MEAN_ELEMENT_THEORY = SGP/SGP4

EPOCH          = 2026-02-18T20:12:18.978048
MEAN_MOTION    = 15.76440258
ECCENTRICITY   = .0002163
INCLINATION    = 42.9968
RA_OF_ASC_NODE = 256.5200
ARG_OF_PERICENTER = 285.7581
MEAN_ANOMALY   = 74.3050

EPHEMERIS_TYPE = 0
CLASSIFICATION_TYPE = U
NORAD_CAT_ID   = 67643
ELEMENT_SET_NO = 999
REV_AT_EPOCH   = 311
BSTAR          = .14967E-2
MEAN_MOTION_DOT = .251422E-2
MEAN_MOTION_DDOT = 0

CCSDS_OMM_VERS = 2.0
CREATION_DATE  = 
ORIGINATOR     = 

OBJECT_NAME    = STARLINK-36623
OBJECT_ID      = 2026-020AD
CENTER_NAME    = EARTH
REF_FRAME      = TEME
TIME_SYSTEM    = UTC
MEAN_ELEMENT_THEORY = SGP/SGP4

EPOCH          = 2026-02-18T21:34:04.659456
MEAN_MOTION    = 15.76629231
ECCENTRICITY   = .0006073
INCLINATION    = 42.9962
RA_OF_ASC_NODE = 256.0801
ARG_OF_PERICENTER = 238.1136
MEAN_ANOMALY   = 121.9143

EPHEMERIS_TYPE = 0
CLASSIFICATION_TYPE = U
NORAD_CAT_ID   = 67644
ELEMENT_SET_NO = 999
REV_AT_EPOCH   = 312
BSTAR          = .17318E-2
MEAN_MOTION_DOT = .295164E-2
MEAN_MOTION_DDOT = 0

CCSDS_OMM_VERS = 2.0
CREATION_DATE  = 
ORIGINATOR     = 

OBJECT_NAME    = STARLINK-36619
OBJECT_ID      = 2026-020AE
CENTER_NAME    = EARTH
REF_FRAME      = TEME
TIME_SYSTEM    = UTC
MEAN_ELEMENT_THEORY = SGP/SGP4

EPOCH          = 2026-02-18T19:59:42.214272
MEAN_MOTION    = 15.76457239
ECCENTRICITY   = .0001692
INCLINATION    = 42.9968
RA_OF_ASC_NODE = 256.4477
ARG_OF_PERICENTER = 278.7606
MEAN_ANOMALY   = 81.3072

EPHEMERIS_TYPE = 0
CLASSIFICATION_TYPE = U
NORAD_CAT_ID   = 67645
ELEMENT_SET_NO = 999
REV_AT_EPOCH   = 311
BSTAR          = .1394E-2
MEAN_MOTION_DOT = .233826E-2
MEAN_MOTION_DDOT = 0

CCSDS_OMM_VERS = 2.0
CREATION_DATE  = 
ORIGINATOR     = 

OBJECT_NAME    = ALSAT-3B
OBJECT_ID      = 2026-021A
CENTER_NAME    = EARTH
REF_FRAME      = TEME
TIME_SYSTEM    = UTC
MEAN_ELEMENT_THEORY = SGP/SGP4

EPOCH          = 2026-02-18T20:44:48.372864
MEAN_MOTION    = 15.23651805
ECCENTRICITY   = .0012361
INCLINATION    = 97.4704
RA_OF_ASC_NODE = 124.2824
ARG_OF_PERICENTER = 195.3635
MEAN_ANOMALY   = 164.7229

EPHEMERIS_TYPE = 0
CLASSIFICATION_TYPE = U
NORAD_CAT_ID   = 67646
ELEMENT_SET_NO = 999
REV_AT_EPOCH   = 285
BSTAR          = .25667E-3
MEAN_MOTION_DOT = .6093E-4
MEAN_MOTION_DDOT = 0

CCSDS_OMM_VERS = 2.0
CREATION_DATE  = 
ORIGINATOR     = 

OBJECT_NAME    = CZ-2C R/B
OBJECT_ID      = 2026-021B
CENTER_NAME    = EARTH
REF_FRAME      = TEME
TIME_SYSTEM    = UTC
MEAN_ELEMENT_THEORY = SGP/SGP4

EPOCH          = 2026-02-18T20:49:27.151104
MEAN_MOTION    = 15.23566299
ECCENTRICITY   = .0153348
INCLINATION    = 97.6545
RA_OF_ASC_NODE = 124.9578
ARG_OF_PERICENTER = 76.6873
MEAN_ANOMALY   = 285.1412

EPHEMERIS_TYPE = 0
CLASSIFICATION_TYPE = U
NORAD_CAT_ID   = 67647
ELEMENT_SET_NO = 999
REV_AT_EPOCH   = 283
BSTAR          = .33935E-3
MEAN_MOTION_DOT = .11242E-3
MEAN_MOTION_DDOT = 0

CCSDS_OMM_VERS = 2.0
CREATION_DATE  = 
ORIGINATOR     = 

OBJECT_NAME    = STARLINK-36719
OBJECT_ID      = 2026-022A
CENTER_NAME    = EARTH
REF_FRAME      = TEME
TIME_SYSTEM    = UTC
MEAN_ELEMENT_THEORY = SGP/SGP4

EPOCH          = 2026-02-18T20:00:01.999008
MEAN_MOTION    = 15.75130664
ECCENTRICITY   = .000143
INCLINATION    = 97.2849
RA_OF_ASC_NODE = 82.8683
ARG_OF_PERICENTER = 109.9371
MEAN_ANOMALY   = 107.6172

EPHEMERIS_TYPE = 0
CLASSIFICATION_TYPE = U
NORAD_CAT_ID   = 67648
ELEMENT_SET_NO = 999
REV_AT_EPOCH   = 386
BSTAR          = .62545E-3
MEAN_MOTION_DOT = .93951E-3
MEAN_MOTION_DDOT = 0

CCSDS_OMM_VERS = 2.0
CREATION_DATE  = 
ORIGINATOR     = 

OBJECT_NAME    = STARLINK-36342
OBJECT_ID      = 2026-022B
CENTER_NAME    = EARTH
REF_FRAME      = TEME
TIME_SYSTEM    = UTC
MEAN_ELEMENT_THEORY = SGP/SGP4

EPOCH          = 2026-02-18T20:00:01.999008
MEAN_MOTION    = 15.75231163
ECCENTRICITY   = .0001342
INCLINATION    = 97.2833
RA_OF_ASC_NODE = 82.8707
ARG_OF_PERICENTER = 90.3943
MEAN_ANOMALY   = 131.1948

EPHEMERIS_TYPE = 0
CLASSIFICATION_TYPE = U
NORAD_CAT_ID   = 67649
ELEMENT_SET_NO = 999
REV_AT_EPOCH   = 386
BSTAR          = -.74748E-3
MEAN_MOTION_DOT = -.110389E-2
MEAN_MOTION_DDOT = 0

CCSDS_OMM_VERS = 2.0
CREATION_DATE  = 
ORIGINATOR     = 

OBJECT_NAME    = STARLINK-36703
OBJECT_ID      = 2026-022C
CENTER_NAME    = EARTH
REF_FRAME      = TEME
TIME_SYSTEM    = UTC
MEAN_ELEMENT_THEORY = SGP/SGP4

EPOCH          = 2026-02-18T20:00:01.999008
MEAN_MOTION    = 15.75246399
ECCENTRICITY   = .0001532
INCLINATION    = 97.2831
RA_OF_ASC_NODE = 82.8726
ARG_OF_PERICENTER = 101.9638
MEAN_ANOMALY   = 125.6180

EPHEMERIS_TYPE = 0
CLASSIFICATION_TYPE = U
NORAD_CAT_ID   = 67650
ELEMENT_SET_NO = 999
REV_AT_EPOCH   = 386
BSTAR          = -.8944E-3
MEAN_MOTION_DOT = -.131824E-2
MEAN_MOTION_DDOT = 0

CCSDS_OMM_VERS = 2.0
CREATION_DATE  = 
ORIGINATOR     = 

OBJECT_NAME    = STARLINK-36696
OBJECT_ID      = 2026-022D
CENTER_NAME    = EARTH
REF_FRAME      = TEME
TIME_SYSTEM    = UTC
MEAN_ELEMENT_THEORY = SGP/SGP4

EPOCH          = 2026-02-18T20:00:01.999008
MEAN_MOTION    = 15.75232068
ECCENTRICITY   = .0001284
INCLINATION    = 97.2833
RA_OF_ASC_NODE = 82.8773
ARG_OF_PERICENTER = 104.5865
MEAN_ANOMALY   = 133.0063

EPHEMERIS_TYPE = 0
CLASSIFICATION_TYPE = U
NORAD_CAT_ID   = 67651
ELEMENT_SET_NO = 999
REV_AT_EPOCH   = 386
BSTAR          = -.6846E-3
MEAN_MOTION_DOT = -.101225E-2
MEAN_MOTION_DDOT = 0

CCSDS_OMM_VERS = 2.0
CREATION_DATE  = 
ORIGINATOR     = 

OBJECT_NAME    = STARLINK-36699
OBJECT_ID      = 2026-022E
CENTER_NAME    = EARTH
REF_FRAME      = TEME
TIME_SYSTEM    = UTC
MEAN_ELEMENT_THEORY = SGP/SGP4

EPOCH          = 2026-02-18T20:00:01.999008
MEAN_MOTION    = 15.75223517
ECCENTRICITY   = .0001223
INCLINATION    = 97.2829
RA_OF_ASC_NODE = 82.8781
ARG_OF_PERICENTER = 88.2995
MEAN_ANOMALY   = 153.2932

EPHEMERIS_TYPE = 0
CLASSIFICATION_TYPE = U
NORAD_CAT_ID   = 67652
ELEMENT_SET_NO = 999
REV_AT_EPOCH   = 386
BSTAR          = -.91522E-3
MEAN_MOTION_DOT = -.134705E-2
MEAN_MOTION_DDOT = 0

CCSDS_OMM_VERS = 2.0
CREATION_DATE  = 
ORIGINATOR     = 

OBJECT_NAME    = STARLINK-36694
OBJECT_ID      = 2026-022F
CENTER_NAME    = EARTH
REF_FRAME      = TEME
TIME_SYSTEM    = UTC
MEAN_ELEMENT_THEORY = SGP/SGP4

EPOCH          = 2026-02-18T20:00:01.999008
MEAN_MOTION    = 15.75253233
ECCENTRICITY   = .0001317
INCLINATION    = 97.2834
RA_OF_ASC_NODE = 82.8846
ARG_OF_PERICENTER = 112.7015
MEAN_ANOMALY   = 140.8897

EPHEMERIS_TYPE = 0
CLASSIFICATION_TYPE = U
NORAD_CAT_ID   = 67653
ELEMENT_SET_NO = 999
REV_AT_EPOCH   = 386
BSTAR          = -.1043E-2
MEAN_MOTION_DOT = -.153356E-2
MEAN_MOTION_DDOT = 0

CCSDS_OMM_VERS = 2.0
CREATION_DATE  = 
ORIGINATOR     = 

OBJECT_NAME    = STARLINK-36620
OBJECT_ID      = 2026-022G
CENTER_NAME    = EARTH
REF_FRAME      = TEME
TIME_SYSTEM    = UTC
MEAN_ELEMENT_THEORY = SGP/SGP4

EPOCH          = 2026-02-18T20:00:01.999008
MEAN_MOTION    = 15.75222050
ECCENTRICITY   = .0001439
INCLINATION    = 97.2835
RA_OF_ASC_NODE = 82.8843
ARG_OF_PERICENTER = 103.7061
MEAN_ANOMALY   = 151.8913

EPHEMERIS_TYPE = 0
CLASSIFICATION_TYPE = U
NORAD_CAT_ID   = 67654
ELEMENT_SET_NO = 999
REV_AT_EPOCH   = 386
BSTAR          = -.66116E-3
MEAN_MOTION_DOT = -.97763E-3
MEAN_MOTION_DDOT = 0

